O3B FM5                 
1 39188U 13031A   26087.08443740 -.00000029  00000+0  00000+0 0  9990
2 39188   0.1013   7.8394 0003249 349.0661   3.0879  5.00116427232981
O3B FM4                 
1 39189U 13031B   26086.40408870 -.00000028  00000+0  00000+0 0  9990
2 39189   0.0535 345.5776 0005069  27.4764 346.9547  5.00115128232954
O3B FM2                 
1 39190U 13031C   26087.46918703 -.00000029  00000+0  00000+0 0  9991
2 39190   0.0527 338.9684 0002806  25.6513 355.3782  5.00115944233063
O3B PFM                 
1 39191U 13031D   26080.88691880 -.00000015  00000+0  00000+0 0  9990
2 39191   0.0686   5.4871 0005325  11.7167 342.8128  5.00116261232296
O3B FM3                 
1 40079U 14038A   26086.35059271 -.00000028  00000+0  00000+0 0  9999
2 40079   0.0529 354.5796 0000866  77.5671 287.8583  5.00115572208951
O3B FM7                 
1 40080U 14038B   26087.49603088 -.00000029  00000+0  00000+0 0  9999
2 40080   0.0574 348.2906 0004272   6.5670   5.1333  5.00115569213846
O3B FM6                 
1 40081U 14038C   26087.52303053 -.00000029  00000+0  00000+0 0  9993
2 40081   0.0541 351.7652 0002640  13.3857 354.8471  5.00115666213786
O3B FM8                 
1 40082U 14038D   26087.37644398 -.00000029  00000+0  00000+0 0  9997
2 40082   0.0547 351.0058 0002678  17.8266 351.1676  5.00115959213906
O3B FM10                
1 40348U 14083A   26086.40408949 -.00000028  00000+0  00000+0 0  9994
2 40348   0.0455 334.8109 0002686  31.2091 353.9787  5.00115499205802
O3B FM11                
1 40349U 14083B   26086.41678984 -.00000028  00000+0  00000+0 0  9994
2 40349   0.0578   0.2533 0003039 353.3632   6.3752  5.00115538205823
O3B FM12                
1 40350U 14083C   26087.44332126 -.00000029  00000+0  00000+0 0  9996
2 40350   0.0570 359.6526 0002595   2.2595 358.0842  5.00115911205882
O3B FM9                 
1 40351U 14083D   26087.07037111 -.00000029  00000+0  00000+0 0  9992
2 40351   0.0590   0.2729 0002712   5.1843 354.5411  5.00115876206006
LEO 1 (LEO VANTAGE 1)   
1 43113U 18004C   26087.45863178  .00005221  00000+0  36446-3 0  9995
2 43113  99.2461 355.2192 0351275 327.3676  30.6244 14.67375675425640
O3B FM15                
1 43231U 18024A   26087.53692471 -.00000029  00000+0  00000+0 0  9998
2 43231   0.0500   2.8181 0002658   0.9720 356.2073  5.00115676146984
O3B FM16                
1 43232U 18024B   26087.18950767 -.00000029  00000+0  00000+0 0  9995
2 43232   0.0466   5.8364 0002710 356.8955 357.2649  5.00115912146897
O3B FM14                
1 43233U 18024C   26087.43016357 -.00000029  00000+0  00000+0 0  9992
2 43233   0.0452   5.1630 0002863   0.7325 354.1033  5.00115664146917
O3B FM13                
1 43234U 18024D   26084.69755415 -.00000024  00000+0  00000+0 0  9998
2 43234   0.0470 335.8508 0003967 348.6026  35.5167  5.00115556146887
